INTELSAT 902 (IS-902)   
1 26900U 01039A   26169.52849991 -.00000292  00000+0  00000+0 0  9993
2 26900   6.1204  71.7676 0004307  12.4923 322.6674  1.00271543 90700
INTELSAT 904 (IS-904)   
1 27380U 02007A   26169.46096602 -.00000235  00000+0  00000+0 0  9995
2 27380   6.9241  69.1697 0006530   5.9759 326.0004  1.00270286 51772
DIRECTV 5 (TEMPO 1)     
1 27426U 02023A   26169.41919968 -.00000065  00000+0  00000+0 0  9999
2 27426   4.8819  75.2944 0003143  13.6987 218.4628  1.00271613 88131
INTELSAT 905 (IS-905)   
1 27438U 02027A   26169.79641060  .00000085  00000+0  00000+0 0  9993
2 27438   6.7585  69.7818 0003883  22.1545 324.5816  1.00272116 51372
GALAXY 3C (G-3C)        
1 27445U 02030A   26169.37701778 -.00000160  00000+0  00000+0 0  9997
2 27445   3.7359  77.9598 0001601  30.5698 198.9629  1.00271347 46509
INTELSAT 906 (IS-906)   
1 27513U 02041A   26169.20649958  .00000004  00000+0  00000+0 0  9994
2 27513   5.8051  72.9092 0004397   2.8775 329.1640  1.00275136 87038
GALAXY 13 (HORIZONS-1)  
1 27954U 03044A   26169.65134433  .00000126  00000+0  00000+0 0  9998
2 27954   1.4228  83.8471 0002227 355.5372 271.9735  1.00271682 46584
INTELSAT 10-02          
1 28358U 04022A   26169.60952243 -.00000017  00000+0  00000+0 0  9996
2 28358   0.0170 305.3898 0000089 226.0866 313.7894  1.00271494 80572
DIRECTV 8               
1 28659U 05019A   26169.65741102  .00000000  00000+0  00000+0 0  9993
2 28659   0.0194  12.3444 0002974  81.1360 291.0348  1.00269879 77086
GALAXY 28 (G-28)        
1 28702U 05022A   26169.81807735 -.00000208  00000+0  00000+0 0  9990
2 28702   3.3024  78.9149 0002851   8.2458  87.3200  1.00271033 51995
GALAXY 16 (G-16)        
1 29236U 06023A   26169.66139771 -.00000133  00000+0  00000+0 0  9993
2 29236   0.0108  96.8222 0002510 347.0208 322.1537  1.00271467 72981
DIRECTV 9S              
1 29494U 06043A   26169.66096436 -.00000120  00000+0  00000+0 0  9997
2 29494   2.4256  80.8851 0004970  13.4998 309.2610  1.00270968 51395
GALAXY 17 (G-17)        
1 31307U 07016B   26169.80672398 -.00000213  00000+0  00000+0 0  9990
2 31307   2.9772  79.8811 0004669  18.6220  13.9446  1.00271625 69827
INTELSAT 11 (IS-11)     
1 32253U 07044B   26169.82155633 -.00000210  00000+0  00000+0 0  9999
2 32253   3.5706  78.6500 0002440  88.5869 154.2628  0.99050129 68465
HORIZONS-2              
1 32388U 07063B   26169.80897733 -.00000261  00000+0  00000+0 0  9997
2 32388   2.6071  80.6058 0003858 358.1525  45.6987  1.00272848 67837
DIRECTV 11              
1 32729U 08013A   26169.65710523 -.00000132  00000+0  00000+0 0  9993
2 32729   0.0065 285.2993 0000174  94.7881  24.1838  1.00269953 45609
GALAXY 18 (G-18)        
1 32951U 08024A   26169.65663102  .00000019  00000+0  00000+0 0  9995
2 32951   0.0159  58.5793 0002786  26.7804 294.9187  1.00270297 45865
INTELSAT 25 (IS-25)     
1 33153U 08034A   26169.81875302 -.00000182  00000+0  00000+0 0  9998
2 33153   2.7151  80.3536 0003457  60.5514 175.2855  0.99034072 65703
GALAXY 19 (G-19)        
1 33376U 08045A   26169.66183103 -.00000145  00000+0  00000+0 0  9990
2 33376   0.0324 263.5653 0002518 188.5280 316.0666  1.00271177 64915
FM-5                    
1 35493U 09034A   26169.80646397 -.00000206  00000+0  00000+0 0  9994
2 35493   0.0179 295.9022 0000944  19.5019 155.7986  1.00271588 46669
INTELSAT 14 (IS-14)     
1 36097U 09064A   26169.81469735 -.00000280  00000+0  00000+0 0  9990
2 36097   0.0112 313.3595 0002312 132.8489  69.1362  1.00271936 60623
INTELSAT 15 (IS-15)     
1 36106U 09067A   26169.84048277 -.00000191  00000+0  00000+0 0  9992
2 36106   0.0165 338.5876 0002121 109.1900 207.0134  1.00272268 41242
DIRECTV 12              
1 36131U 09075A   26169.66070436 -.00000110  00000+0  00000+0 0  9992
2 36131   0.0434 170.9001 0000385 299.0990 292.0273  1.00272181 46567
INTELSAT 16 (IS-16)     
1 36397U 10006A   26169.52329987 -.00000251  00000+0  00000+0 0  9991
2 36397   0.0106 326.8305 0001928 134.2807 277.8288  1.00272434 59660
XM-5                    
1 37185U 10053A   26169.65819102 -.00000029  00000+0  00000+0 0  9999
2 37185   0.0617 273.0740 0002633 290.4585 185.1075  1.00269942 57495
INTELSAT 17 (IS-17)     
1 37238U 10065B   26169.86539824  .00000000  00000+0  00000+0 0  9992
2 37238   0.0248  73.8667 0002870  38.8550 171.8960  1.00272172 53262
INTELSAT 28 (IS-28)     
1 37392U 11016A   26169.81729735 -.00000232  00000+0  00000+0 0  9995
2 37392   1.8114  82.5976 0003628   6.2655  80.6954  1.00271531 53304
INTELSAT 18 (IS-18)     
1 37834U 11056A   26169.78791722  .00000046  00000+0  00000+0 0  9993
2 37834   0.0379 272.9518 0001721 174.3334 283.3773  1.00270806 53821
INTELSAT 22 (IS-22)     
1 38098U 12011A   26169.78520639 -.00000065  00000+0  00000+0 0  9997
2 38098   0.0141  38.0192 0001542  53.1475 170.6292  1.00272401  7209
INTELSAT 19 (IS-19)     
1 38356U 12030A   26169.78514389 -.00000063  00000+0  00000+0 0  9998
2 38356   0.0185   4.1791 0002933  91.6631 259.8205  1.00271435 50465
INTELSAT 20 (IS-20)     
1 38740U 12043A   26169.83710270 -.00000031  00000+0  00000+0 0  9997
2 38740   0.0029  47.2647 0001439 132.1671  97.5047  1.00271173 50765
